ORBCOMM FM24            
1 25478U 98053D   24167.52642879  .00001158  00000+0  44453-3 0  9991
2 25478  45.0073 204.6858 0002705 247.3587 112.6974 14.35836806344702
ORBCOMM FM25            
1 25479U 98053E   24167.56281962  .00001077  00000+0  41702-3 0  9992
2 25479  45.0063 202.7607 0005088 233.6199 126.4179 14.35815952345000
ORBCOMM FM26            
1 25480U 98053F   24167.51399417  .00000985  00000+0  38996-3 0  9992
2 25480  45.0057 197.2649 0007481 243.2120 116.7962 14.35238330344931
ORBCOMM FM27            
1 25481U 98053G   24167.55128340  .00001206  00000+0  46122-3 0  9999
2 25481  45.0045 203.0782 0002376 282.1805  77.8776 14.35804327344938
ORBCOMM FM28            
1 25482U 98053H   24167.38786662  .00001373  00000+0  51422-3 0  9992
2 25482  45.0049 142.1969 0005381 276.6774  83.3461 14.36224825345580
ORBCOMM FM30            
1 25980U 99065A   24167.05496294  .00001306  00000+0  49978-3 0  9991
2 25980  45.0339  24.9942 0005904 331.7829  28.2698 14.35374427281669
ORBCOMM FM31            
1 25981U 99065B   24167.57738650  .00001337  00000+0  51053-3 0  9995
2 25981  45.0247  16.1959 0003112   1.6462 358.4395 14.35371417281291
ORBCOMM FM32            
1 25982U 99065C   24167.58409475  .00001390  00000+0  53927-3 0  9998
2 25982  45.0179  30.2263 0005594   1.8739 358.2128 14.34375106281926
